GLOBALSTAR M068 [-]     
1 32266U 07048D   24103.50394815 -.00000045  00000+0  32550-3 0  9990
2 32266  51.9873 175.0809 0000639 243.3207 218.8251 12.62784269763148
GLOBALSTAR M079 [+]     
1 37188U 10054A   24103.90460177 -.00000081  00000+0  12652-3 0  9999
2 37188  52.0069   9.6345 0000899  76.4964  46.2868 12.62268130622117
GLOBALSTAR M074 [+]     
1 37189U 10054B   24103.92443947 -.00000073  00000+0  17389-3 0  9991
2 37189  52.0044   8.9644 0000623  78.1065  14.2549 12.62266783622721
GLOBALSTAR M076 [+]     
1 37190U 10054C   24103.94821713 -.00000078  00000+0  14510-3 0  9994
2 37190  52.0058   9.0229 0000992 105.8844 335.2154 12.62276434622442
GLOBALSTAR M077 [+]     
1 37191U 10054D   24103.94043222 -.00000078  00000+0  14495-3 0  9998
2 37191  52.0085 325.7822 0000741  95.9668   8.8596 12.62271439622819
GLOBALSTAR M075 [+]     
1 37192U 10054E   24103.26355431 -.00000103  00000+0  55121-5 0  9994
2 37192  51.9963  53.6024 0000582  63.9468  83.8987 12.62272163621956
GLOBALSTAR M073 [+]     
1 37193U 10054F   24103.81307815 -.00000073  00000+0  17180-3 0  9996
2 37193  52.0071 325.4237 0000869  94.1978  32.2586 12.62263631623488
GLOBALSTAR M083 [+]     
1 37739U 11033A   24103.65760878 -.00000062  00000+0  23504-3 0  9999
2 37739  51.9849 275.2152 0000722  84.4945 355.6251 12.62268414592487
GLOBALSTAR M088 [+]     
1 37740U 11033B   24103.55824736 -.00000071  00000+0  18072-3 0  9998
2 37740  51.9723 181.3709 0000457  92.6369  16.3151 12.62266872588011
GLOBALSTAR M091 [+]     
1 37741U 11033C   24103.50063148 -.00000088  00000+0  85734-4 0  9994
2 37741  51.9979 144.3307 0000397  57.3787  89.6501 12.62261506588799
GLOBALSTAR M085 [+]     
1 37742U 11033D   24103.32058157 -.00000115  00000+0 -62262-4 0  9992
2 37742  51.9853  96.2971 0000497  47.6979  60.3277 12.62269473589281
GLOBALSTAR M081 [+]     
1 37743U 11033E   24103.18246882 -.00000113  00000+0 -50613-4 0  9996
2 37743  51.9944  99.2385 0000606  61.0102  19.1949 12.62264069589414
GLOBALSTAR M089 [+]     
1 37744U 11033F   24103.32001170 -.00000105  00000+0 -93471-5 0  9993
2 37744  51.9945  53.1291 0000628 104.2167  60.4489 12.62261733590275
GLOBALSTAR M084 [+]     
1 38040U 11080A   24103.96707426 -.00000087  00000+0  96377-4 0  9997
2 38040  52.0000 278.2198 0000884 122.0347  45.5545 12.62273234568335
GLOBALSTAR M080 [+]     
1 38041U 11080B   24103.69482140 -.00000091  00000+0  70493-4 0  9997
2 38041  52.0053 280.5061 0001103 120.2939   8.4100 12.62271123568421
GLOBALSTAR M082 [+]     
1 38042U 11080C   24103.53858773 -.00000089  00000+0  84836-4 0  9993
2 38042  52.0067 236.3814 0000372  51.9441  26.3346 12.62267924569119
GLOBALSTAR M092 [+]     
1 38043U 11080D   24103.84043441 -.00000078  00000+0  14126-3 0  9998
2 38043  52.0096 325.8173 0000610 104.7311  26.4945 12.62277900567605
GLOBALSTAR M090 [+]     
1 38044U 11080E   24103.56537494 -.00000085  00000+0  10316-3 0  9999
2 38044  51.9876 230.6614 0000498  92.0839 349.1756 12.62268007569235
GLOBALSTAR M086 [+]     
1 38045U 11080F   24103.52181170 -.00000084  00000+0  11130-3 0  9996
2 38045  51.9888 231.3124 0001552  97.0659  25.6522 12.62269368569171
GLOBALSTAR M097 [+]     
1 39072U 13005A   24103.28388800 -.00000085  00000+0  10285-3 0  9999
2 39072  52.0028 146.1481 0000481  75.0429 285.0491 12.62262356516393
GLOBALSTAR M093 [+]     
1 39073U 13005B   24103.41564869 -.00000094  00000+0  55379-4 0  9990
2 39073  51.9792 139.7384 0000512  63.2681 296.8237 12.62263055516366
GLOBALSTAR M094 [+]     
1 39074U 13005C   24103.25732182 -.00000110  00000+0 -35626-4 0  9991
2 39074  51.9972  54.1681 0000700  58.7613 301.3322 12.62264191517955
GLOBALSTAR M096 [+]     
1 39075U 13005D   24103.34960282 -.00000116  00000+0 -65965-4 0  9991
2 39075  52.0058 102.0659 0000574  49.0768 311.0148 12.62264283516881
GLOBALSTAR M078 [+]     
1 39076U 13005E   24103.40297726 -.00000047  00000+0  31717-3 0  9994
2 39076  51.9862 187.0054 0000560 316.7018  43.3805 12.62260920515510
GLOBALSTAR M095 [+]     
1 39077U 13005F   24103.50776328 -.00000065  00000+0  21680-3 0  9994
2 39077  51.9793 184.0918 0000482  27.9610 332.1282 12.62264991515387
GLOBALSTAR M087 [+]     
1 52888U 22064A   24103.35263048 -.00000125  00000+0  65551-5 0  9991
2 52888  51.9756  77.9402 0009173 195.1574 164.9053 13.37569491 88717
